NORAD_CAT_ID,OBJECT_NAME,OBJECT_TYPE,EPOCH,MEAN_MOTION,ECCENTRICITY,INCLINATION,RA_OF_ASC_NODE,ARG_OF_PERICENTER,MEAN_ANOMALY,BSTAR,MEAN_MOTION_DOT,MEAN_MOTION_DDOT,TLE_LINE0,TLE_LINE1,TLE_LINE2,SEMIMAJOR_AXIS,PERIOD,APOGEE,PERIGEE,DECAYED
52282.0,STARLINK-3783,PAYLOAD,2022-05-06 14:00:01,15.73287372,0.0001374,53.2146,301.0747,49.3541,63.7931,-0.00047219,-0.00066614,0.0,0 STARLINK-3783,1 52282U 22041X   22126.58334491 -.00066614  00000-0 -47219-3 0  9999,2 52282  53.2146 301.0747 0001374  49.3541  63.7931 15.73287372  3574,6727.646,91.528,350.435,348.587,0.0
52282.0,STARLINK-3783,PAYLOAD,2022-05-07 14:00:01,15.72856132,0.0001646,53.2169,296.1267,42.0083,338.075,0.0037458,0.00553059,0.0,0 STARLINK-3783,1 52282U 22041X   22127.58334491  .00553059  00000-0  37458-2 0  9995,2 52282  53.2169 296.1267 0001646  42.0083 338.0750 15.72856132  3160,6728.876,91.553,351.848,349.6330000000001,0.0
52282.0,STARLINK-3783,PAYLOAD,2022-05-07 20:00:01,15.73179632,0.0001636999999999,53.214,294.8905,39.8368,316.976,0.00053716,0.00075381,0.0,0 STARLINK-3783,1 52282U 22041X   22127.83334491  .00075381  00000-0  53716-3 0  9996,2 52282  53.2140 294.8905 0001637  39.8368 316.9760 15.73179632  3770,6727.953,91.534,350.92,348.717,0.0
52282.0,STARLINK-3783,PAYLOAD,2022-05-07 22:00:00,15.73177905,0.0001621,53.2138,294.4783,37.7409,71.3052,0.00073925,0.00104328,0.0,0 STARLINK-3783,1 52282U 22041X   22127.91667824  .00104328  00000-0  73925-3 0  9992,2 52282  53.2138 294.4783 0001621  37.7409  71.3052 15.73177905  3219,6727.958000000001,91.534,350.914,348.733,0.0
52282.0,STARLINK-3783,PAYLOAD,2022-05-08 12:00:00,15.73236164,0.0001361,53.214,291.5893,40.8468,133.8641,-0.00011484,-0.0001673,0.0,0 STARLINK-3783,1 52282U 22041X   22128.50001157 -.00016730  00000-0 -11484-3 0  9992,2 52282  53.2140 291.5893 0001361  40.8468 133.8641 15.73236164  3876,6727.792,91.531,350.5730000000001,348.741,0.0
52282.0,STARLINK-3783,PAYLOAD,2022-05-08 14:00:01,15.73265351,0.0001408,53.214,291.1774,36.5216,250.4227,-0.0006502999999999,-0.00091158,0.0,0 STARLINK-3783,1 52282U 22041X   22128.58334491 -.00091158  00000-0 -65030-3 0  9993,2 52282  53.2140 291.1774 0001408  36.5216 250.4227 15.73265351  3321,6727.709,91.529,350.521,348.62699999999984,0.0
52282.0,STARLINK-3783,PAYLOAD,2022-05-08 20:00:01,15.73199185,0.000165,53.214,289.9418,32.1231,231.5608,-0.00034023,-0.00048097,0.0,0 STARLINK-3783,1 52282U 22041X   22128.83334491 -.00048097  00000-0 -34023-3 0  9993,2 52282  53.2140 289.9418 0001650  32.1231 231.5608 15.73199185  3930,6727.897,91.533,350.87300000000016,348.652,0.0
52282.0,STARLINK-3783,PAYLOAD,2022-05-08 22:00:00,15.73170929,0.0001626999999999,53.2137,289.5293,28.9253,346.9951,3.4427e-06,-1.38e-06,0.0,0 STARLINK-3783,1 52282U 22041X   22128.91667824 -.00000138  00000-0  34427-5 0  9994,2 52282  53.2137 289.5293 0001627  28.9253 346.9951 15.73170929  3379,6727.978,91.535,350.93800000000016,348.74800000000016,0.0
52282.0,STARLINK-3783,PAYLOAD,2022-05-09 04:00:00,15.731605900000002,0.0001457,53.2138,288.2905,29.0275,323.5676,0.00026284,0.00036366,0.0,0 STARLINK-3783,1 52282U 22041X   22129.16667824  .00036366  00000-0  26284-3 0  9993,2 52282  53.2138 288.2905 0001457  29.0275 323.5676 15.73160590  3988,6728.0080000000025,91.535,350.853,348.892,0.0
52282.0,STARLINK-3783,PAYLOAD,2022-05-09 14:00:01,15.73254415,0.0001602,53.2137,286.2290000000001,32.6319,161.1528,-0.00053876,-0.00075733,0.0,0 STARLINK-3783,1 52282U 22041X   22129.58335648 -.00075733  00000-0 -53876-3 0  9995,2 52282  53.2137 286.2290 0001602  32.6319 161.1528 15.73254415  3480,6727.74,91.53,350.68300000000005,348.527,0.0
52282.0,STARLINK-3783,PAYLOAD,2022-05-09 22:00:00,15.73202689,0.0001888,53.2136,284.5807,32.0107,250.6716,-8.7607e-05,-0.00012899,0.0,0 STARLINK-3783,1 52282U 22041X   22129.91667824 -.00012899  00000-0 -87607-4 0  9990,2 52282  53.2136 284.5807 0001888  32.0107 250.6716 15.73202689  3534,6727.888000000001,91.533,351.023,348.482,0.0
52282.0,STARLINK-3783,PAYLOAD,2022-05-10 06:00:00,15.73128848,0.0001742,53.2142,282.9289,41.2754,330.327,0.00063401,0.00089036,0.0,0 STARLINK-3783,1 52282U 22041X   22130.25001157  .00089036  00000-0  63401-3 0  9990,2 52282  53.2142 282.9289 0001742  41.2754 330.3270 15.73128848  4150,6728.098000000001,91.537,351.135,348.791,0.0
52282.0,STARLINK-3783,PAYLOAD,2022-05-10 14:00:01,15.73233102,0.0001838,53.215,281.2804,38.4473,62.0332,-0.00044288,-0.00062409,0.0,0 STARLINK-3783,1 52282U 22041X   22130.58334491 -.00062409  00000-0 -44288-3 0  9995,2 52282  53.2150 281.2804 0001838  38.4473  62.0332 15.73233102  3647,6727.801,91.531,350.902,348.42900000000014,0.0
52282.0,STARLINK-3783,PAYLOAD,2022-05-10 18:00:00,15.73211316,0.000193,53.2149,280.4566,34.2502,290.7127,-0.00025646,-0.00036478,0.0,0 STARLINK-3783,1 52282U 22041X   22130.75001157 -.00036478  00000-0 -25646-3 0  9998,2 52282  53.2149 280.4566 0001930  34.2502 290.7127 15.73211316  4232,6727.863,91.533,351.026,348.42900000000014,0.0
52282.0,STARLINK-3783,PAYLOAD,2022-05-11 20:00:01,15.73159416,0.0002085,53.2143,275.0958,29.6707,314.3207,0.0003155,0.00043814,0.0,0 STARLINK-3783,1 52282U 22041X   22131.83334491  .00043814  00000-0  31550-3 0  9999,2 52282  53.2143 275.0958 0002085  29.6707 314.3207 15.73159416  4401,6728.011,91.536,351.279,348.473,0.0
52282.0,STARLINK-3783,PAYLOAD,2022-05-11 22:00:00,15.73165061,0.0002057,53.214,274.683,27.0886,69.124,0.00033915,0.00047176,0.0,0 STARLINK-3783,1 52282U 22041X   22131.91667824  .00047176  00000-0  33915-3 0  9999,2 52282  53.2140 274.6830 0002057  27.0886  69.1240 15.73165061  1302,6727.995,91.535,351.244,348.476,0.0
52282.0,STARLINK-3783,PAYLOAD,2022-05-12 14:00:01,15.73274992,0.0001928,53.2145,271.3831,26.754,247.2894,-0.00048509,-0.00068373,0.0,0 STARLINK-3783,1 52282U 22041X   22132.58334491 -.00068373  00000-0 -48509-3 0  9993,2 52282  53.2145 271.3831 0001928  26.7540 247.2894 15.73274992  1309,6727.681,91.529,350.843,348.249,0.0
52282.0,STARLINK-3783,PAYLOAD,2022-05-12 22:00:00,15.73244993,0.0002144,53.2144,269.7339,21.8443,341.2163,-0.00021064,-0.00030138,0.0,0 STARLINK-3783,1 52282U 22041X   22132.91667824 -.00030138  00000-0 -21064-3 0  9994,2 52282  53.2144 269.7339 0002144  21.8443 341.2163 15.73244993  1303,6727.767,91.531,351.074,348.189,0.0
52282.0,STARLINK-3783,PAYLOAD,2022-05-13 06:00:00,15.73205548,0.0002041,53.2146,268.0823,29.4518,62.5536,1.5847e-05,1.604e-05,0.0,0 STARLINK-3783,1 52282U 22041X   22133.25001157  .00001604  00000-0  15847-4 0  9990,2 52282  53.2146 268.0823 0002041  29.4518  62.5536 15.73205548  4626,6727.879,91.533,351.11800000000005,348.371,0.0
52282.0,STARLINK-3783,PAYLOAD,2022-05-13 14:00:01,15.73222471,0.000224,53.2145,266.4341,29.2974,151.6502,-0.00047462,-0.00066777,0.0,0 STARLINK-3783,1 52282U 22041X   22133.58334491 -.00066777  00000-0 -47462-3 0  9997,2 52282  53.2145 266.4341 0002240  29.2974 151.6502 15.73222471  1306,6727.831,91.532,351.20300000000015,348.189,0.0
52282.0,STARLINK-3783,PAYLOAD,2022-05-13 22:00:00,15.73187113,0.0002256,53.2138,264.7848,21.6726,248.2053,-4.8374e-05,-7.401e-05,0.0,0 STARLINK-3783,1 52282U 22041X   22133.91667824 -.00007401  00000-0 -48374-4 0  9996,2 52282  53.2138 264.7848 0002256  21.6726 248.2053 15.73187113  1306,6727.932,91.534,351.315,348.279,0.0
52282.0,STARLINK-3783,PAYLOAD,2022-05-14 06:00:00,15.73121353,0.0001975,53.2141,263.1332,21.5103,337.2783,0.00056928,0.00079769,0.0,0 STARLINK-3783,1 52282U 22041X   22134.25001157  .00079769  00000-0  56928-3 0  9992,2 52282  53.2141 263.1332 0001975  21.5103 337.2783 15.73121353  4784,6728.119000000002,91.538,351.31300000000016,348.656,0.0
52282.0,STARLINK-3783,PAYLOAD,2022-05-14 14:00:01,15.731837,0.0002197,53.2145,261.4855,19.2066,68.4478,0.00018289,0.00025107,0.0,0 STARLINK-3783,1 52282U 22041X   22134.58334491  .00025107  00000-0  18289-3 0  9993,2 52282  53.2145 261.4855 0002197  19.2066  68.4478 15.73183700  1301,6727.941999999999,91.534,351.285,348.329,0.0
52282.0,STARLINK-3783,PAYLOAD,2022-05-14 22:00:00,15.73286266,0.0002379,53.2145,259.8361,18.3153,158.3106,-0.00032724,-0.00046471,0.0,0 STARLINK-3783,1 52282U 22041X   22134.91667824 -.00046471  00000-0 -32724-3 0  9998,2 52282  53.2145 259.8361 0002379  18.3153 158.3106 15.73286266  4887,6727.649,91.528,351.115,347.914,0.0
52282.0,STARLINK-3783,PAYLOAD,2022-05-15 06:00:00,15.73208038,0.0002139,53.2174,258.1863,23.0678,242.3119,-3.8917e-05,-6.082e-05,0.0,0 STARLINK-3783,1 52282U 22041X   22135.25001157 -.00006082  00000-0 -38917-4 0  9992,2 52282  53.2174 258.1863 0002139  23.0678 242.3119 15.73208038  4943,6727.871999999999,91.533,351.176,348.298,0.0
52282.0,STARLINK-3783,PAYLOAD,2022-05-15 14:00:01,15.732281699999998,0.0002403,53.2146,256.5367,15.9926,338.6328,-0.00035739,-0.00050546,0.0,0 STARLINK-3783,1 52282U 22041X   22135.58335648 -.00050546  00000-0 -35739-3 0  9995,2 52282  53.2146 256.5367 0002403  15.9926 338.6328 15.73228170  4998,6727.815,91.532,351.297,348.06300000000016,0.0
52282.0,STARLINK-3783,PAYLOAD,2022-05-15 22:00:00,15.73237446,0.0002552,53.214,254.887,15.1932,68.3162,-0.0004425,-0.00062376,0.0,0 STARLINK-3783,1 52282U 22041X   22135.91667824 -.00062376  00000-0 -44250-3 0  9998,2 52282  53.2140 254.8870 0002552  15.1932  68.3162 15.73237446  5042,6727.788000000001,91.531,351.37,347.936,0.0
52282.0,STARLINK-3783,PAYLOAD,2022-05-16 12:00:00,15.73250972,0.0002524,53.2146,252.0001,21.5156,127.6063,-0.00075553,-0.00105585,0.0,0 STARLINK-3783,1 52282U 22041X   22136.50001157 -.00105585  00000-0 -75553-3 0  9995,2 52282  53.2146 252.0001 0002524  21.5156 127.6063 15.73250972  5130,6727.75,91.53,351.31300000000016,347.917,0.0
52282.0,STARLINK-3783,PAYLOAD,2022-05-16 14:00:01,15.73229242,0.0002605,53.2145,251.5884,20.8962,240.4715,-0.00068779,-0.00096192,0.0,0 STARLINK-3783,1 52282U 22041X   22136.58334491 -.00096192  00000-0 -68779-3 0  9998,2 52282  53.2145 251.5884 0002605  20.8962 240.4715 15.73229242  1308,6727.812,91.531,351.42900000000014,347.9240000000001,0.0
